NORAD_CAT_ID,OBJECT_NAME,OBJECT_TYPE,EPOCH,MEAN_MOTION,ECCENTRICITY,INCLINATION,RA_OF_ASC_NODE,ARG_OF_PERICENTER,MEAN_ANOMALY,BSTAR,MEAN_MOTION_DOT,MEAN_MOTION_DDOT,TLE_LINE0,TLE_LINE1,TLE_LINE2,SEMIMAJOR_AXIS,PERIOD,APOGEE,PERIGEE,DECAYED
56770.0,STARLINK-6342,PAYLOAD,2024-01-05 23:04:48,14.98329635,0.0002388,69.9986,205.7506,270.2722,89.8163,5.4497e-05,5.57e-06,0.0,0 STARLINK-6342,1 56770U 23078D   24005.96167824  .00000557  00000-0  54497-4 0  9999,2 56770  69.9986 205.7506 0002388 270.2722  89.8163 14.98329635 33553,6950.194,96.107,573.719,570.399,0.0
56770.0,STARLINK-6342,PAYLOAD,2024-01-06 11:53:53,14.98333151,0.0002401,69.9987,204.4044,271.055,89.0334,3.1126e-05,2.78e-06,0.0,0 STARLINK-6342,1 56770U 23078D   24006.49575646  .00000278  00000-0  31126-4 0  9997,2 56770  69.9987 204.4044 0002401 271.0550  89.0334 14.98333151 33371,6950.183,96.107,573.717,570.379,0.0
56770.0,STARLINK-6342,PAYLOAD,2024-01-06 21:30:41,14.98333961,0.0002389,69.9987,203.3943,271.2591,88.8295,3.8722e-05,3.69e-06,0.0,0 STARLINK-6342,1 56770U 23078D   24006.89631485  .00000369  00000-0  38722-4 0  9995,2 56770  69.9987 203.3943 0002389 271.2591  88.8295 14.98333961 33438,6950.181,96.107,573.706,570.385,0.0
56770.0,STARLINK-6342,PAYLOAD,2024-01-06 23:06:49,14.98334488,0.000239,69.9988,203.2261,271.3474,88.7411,4.3662e-05,4.28e-06,0.0,0 STARLINK-6342,1 56770U 23078D   24006.96307422  .00000428  00000-0  43662-4 0  9999,2 56770  69.9988 203.2261 0002390 271.3474  88.7411 14.98334488 33708,6950.179,96.107,573.705,570.383,0.0
56770.0,STARLINK-6342,PAYLOAD,2024-01-07 13:32:02,14.98331157,0.0002339,69.999,201.7116,275.1965,84.8927,2.785e-05,2.39e-06,0.0,0 STARLINK-6342,1 56770U 23078D   24007.56391648  .00000239  00000-0  27850-4 0  9990,2 56770  69.9990 201.7116 0002339 275.1965  84.8927 14.98331157 33533,6950.189,96.107,573.68,570.429,0.0
56770.0,STARLINK-6342,PAYLOAD,2024-01-07 21:32:42,14.9833103,0.0002342,69.9991,200.8701,275.0346,85.0546,2.3763e-05,1.91e-06,0.0,0 STARLINK-6342,1 56770U 23078D   24007.89771627  .00000191  00000-0  23763-4 0  9991,2 56770  69.9991 200.8701 0002342 275.0346  85.0546 14.98331030 33585,6950.19,96.107,573.682,570.427,0.0
56770.0,STARLINK-6342,PAYLOAD,2024-01-07 23:08:50,14.98331455,0.0002344,69.9991,200.7018,275.4111,84.678,2.7684e-05,2.37e-06,0.0,0 STARLINK-6342,1 56770U 23078D   24007.96447584  .00000237  00000-0  27684-4 0  9998,2 56770  69.9991 200.7018 0002344 275.4111  84.6780 14.98331455 33857,6950.188,96.107,573.683,570.424,0.0
56770.0,STARLINK-6342,PAYLOAD,2024-01-08 13:34:03,14.98332397,0.0002241,69.9994,199.1873,269.6106,90.4796,1.7147e-05,1.12e-06,0.0,0 STARLINK-6342,1 56770U 23078D   24008.56531445  .00000112  00000-0  17147-4 0  9990,2 56770  69.9994 199.1873 0002241 269.6106  90.4796 14.98332397 33684,6950.185,96.107,573.608,570.493,0.0
56770.0,STARLINK-6342,PAYLOAD,2024-01-08 21:34:43,14.98331806,0.0002264,69.9994,198.3458,269.7438,90.3461,9.1491e-06,1.6e-07,0.0,0 STARLINK-6342,1 56770U 23078D   24008.89911455  .00000016  00000-0  91491-5 0  9997,2 56770  69.9994 198.3458 0002264 269.7438  90.3461 14.98331806 33736,6950.187,96.107,573.626,570.479,0.0
56770.0,STARLINK-6342,PAYLOAD,2024-01-09 13:36:04,14.98330172,0.0002288,69.9995,196.6629,269.5094,90.5802,1.8993e-05,1.34e-06,0.0,0 STARLINK-6342,1 56770U 23078D   24009.56671474  .00000134  00000-0  18993-4 0  9992,2 56770  69.9995 196.6629 0002288 269.5094  90.5802 14.98330172 33837,6950.192,96.107,573.648,570.467,0.0
56770.0,STARLINK-6342,PAYLOAD,2024-01-09 20:00:36,14.98330028,0.0002297,69.9995,195.9896,269.6246,90.465,1.6041e-05,9.8e-07,0.0,0 STARLINK-6342,1 56770U 23078D   24009.83375486  .00000098  00000-0  16041-4 0  9997,2 56770  69.9995 195.9896 0002297 269.6246  90.4650 14.98330028 34139,6950.193,96.107,573.654,570.461,0.0
56770.0,STARLINK-6342,PAYLOAD,2024-01-09 21:36:44,14.98329879,0.0002301,69.9995,195.8213,270.0266,90.063,1.3552e-05,6.9e-07,0.0,0 STARLINK-6342,1 56770U 23078D   24009.90051500  .00000069  00000-0  13552-4 0  9995,2 56770  69.9995 195.8213 0002301 270.0266  90.0630 14.98329879 33882,6950.193,96.107,573.658,570.459,0.0
56770.0,STARLINK-6342,PAYLOAD,2024-01-10 21:38:45,14.98329983,0.0002304,69.9997,193.2968,269.9592,90.1303,1.4476e-05,8e-07,0.0,0 STARLINK-6342,1 56770U 23078D   24010.90191516  .00000080  00000-0  14476-4 0  9998,2 56770  69.9997 193.2968 0002304 269.9592  90.1303 14.98329983 34295,6950.193,96.107,573.659,570.457,0.0
56770.0,STARLINK-6342,PAYLOAD,2024-01-11 13:40:06,14.98328346,0.0002237,69.9999,191.6136,266.5989,93.4915,2.1307e-05,1.61e-06,0.0,0 STARLINK-6342,1 56770U 23078D   24011.56951648  .00000161  00000-0  21307-4 0  9992,2 56770  69.9999 191.6136 0002237 266.5989  93.4915 14.98328346 34134,6950.198,96.107,573.618,570.508,0.0
56770.0,STARLINK-6342,PAYLOAD,2024-01-11 21:40:46,14.98327561,0.0002285,69.9999,190.772,268.7511,91.3386,9.1857e-06,1.7e-07,0.0,0 STARLINK-6342,1 56770U 23078D   24011.90331786  .00000017  00000-0  91857-5 0  9993,2 56770  69.9999 190.7720 0002285 268.7511  91.3386 14.98327561 34183,6950.2,96.107,573.654,570.477,0.0
56770.0,STARLINK-6342,PAYLOAD,2024-01-12 13:42:07,14.98331021,0.0002376,69.9998,189.0885,272.1752,87.9134,4.6799e-05,4.66e-06,0.0,0 STARLINK-6342,1 56770U 23078D   24012.57091528  .00000466  00000-0  46799-4 0  9996,2 56770  69.9998 189.0885 0002376 272.1752  87.9134 14.98331021 34281,6950.19,96.107,573.706,570.403,0.0
56770.0,STARLINK-6342,PAYLOAD,2024-01-12 21:42:47,14.98332366,0.0002378,69.9999,188.2469,272.5101,87.5785,5.8641e-05,6.07e-06,0.0,0 STARLINK-6342,1 56770U 23078D   24012.90471399  .00000607  00000-0  58641-4 0  9997,2 56770  69.9999 188.2469 0002378 272.5101  87.5785 14.98332366 34332,6950.186,96.107,573.703,570.398,0.0
56770.0,STARLINK-6342,PAYLOAD,2024-01-13 13:44:07,14.98332785,0.0002444,69.9998,186.5636,273.2558,86.8321,7.411e-05,7.91e-06,0.0,0 STARLINK-6342,1 56770U 23078D   24013.57231283  .00000791  00000-0  74110-4 0  9990,2 56770  69.9998 186.5636 0002444 273.2558  86.8321 14.98332785 34430,6950.184,96.107,573.748,570.351,0.0
56770.0,STARLINK-6342,PAYLOAD,2024-01-13 21:44:47,14.98335074,0.0002406,70.0,185.7227,271.4131,88.6752,9.2697e-05,1.013e-05,0.0,0 STARLINK-6342,1 56770U 23078D   24013.90611028  .00001013  00000-0  92697-4 0  9994,2 56770  70.0000 185.7227 0002406 271.4131  88.6752 14.98335074 34745,6950.177,96.107,573.714,570.37,0.0
56770.0,STARLINK-6342,PAYLOAD,2024-01-14 13:46:08,14.98333511,0.0002309,70.0003,184.0398,269.9424,90.1471,3.5774e-05,3.34e-06,0.0,0 STARLINK-6342,1 56770U 23078D   24014.57371148  .00000334  00000-0  35774-4 0  9992,2 56770  70.0003 184.0398 0002309 269.9424  90.1471 14.98333511 34580,6950.182,96.107,573.652,570.442,0.0
56770.0,STARLINK-6342,PAYLOAD,2024-01-14 20:10:40,14.9833362,0.0002319,70.0003,183.3666,268.9262,91.1631,3.3353e-05,3.05e-06,0.0,0 STARLINK-6342,1 56770U 23078D   24014.84075086  .00000305  00000-0  33353-4 0  9993,2 56770  70.0003 183.3666 0002319 268.9262  91.1631 14.98333620 34625,6950.182,96.107,573.658,570.435,0.0
56770.0,STARLINK-6342,PAYLOAD,2024-01-15 12:12:01,14.9833385,0.0002271,70.0005,181.6836,264.345,95.745,1.9711e-05,1.42e-06,0.0,0 STARLINK-6342,1 56770U 23078D   24015.50834925  .00000142  00000-0  19711-4 0  9993,2 56770  70.0005 181.6836 0002271 264.3450  95.7450 14.98333850 34986,6950.181,96.107,573.624,570.468,0.0
56770.0,STARLINK-6342,PAYLOAD,2024-01-15 13:48:09,14.98333534,0.0002279,70.0004,181.5153,264.5875,95.5024,1.4338e-05,7.8e-07,0.0,0 STARLINK-6342,1 56770U 23078D   24015.57510933  .00000078  00000-0  14338-4 0  9998,2 56770  70.0004 181.5153 0002279 264.5875  95.5024 14.98333534 34734,6950.182,96.107,573.631,570.463,0.0
56770.0,STARLINK-6342,PAYLOAD,2024-01-15 20:12:41,14.98332889,0.0002306,70.0005,180.8422,266.004,94.0855,4.0501e-06,-4.5e-07,0.0,0 STARLINK-6342,1 56770U 23078D   24015.84214945 -.00000045  00000-0  40501-5 0  9999,2 56770  70.0005 180.8422 0002306 266.0040  94.0855 14.98332889 34770,6950.184,96.107,573.652,570.446,0.0
56770.0,STARLINK-6342,PAYLOAD,2024-01-16 12:14:02,14.98329361,0.0002335,70.0005,179.1588,266.6243,93.4649,6.8995e-06,-1.1e-07,0.0,0 STARLINK-6342,1 56770U 23078D   24016.50975086 -.00000011  00000-0  68995-5 0  9993,2 56770  70.0005 179.1588 0002335 266.6243  93.4649 14.98329361 35133,6950.195,96.107,573.683,570.437,0.0
56770.0,STARLINK-6342,PAYLOAD,2024-01-16 13:50:10,14.98328989,0.0002351,70.0004,178.9905,267.2082,92.8808,1.6289e-06,-7.3e-07,0.0,0 STARLINK-6342,1 56770U 23078D   24016.57651121 -.00000073  00000-0  16289-5 0  9998,2 56770  70.0004 178.9905 0002351 267.2082  92.8808 14.98328989 34884,6950.196,96.107,573.695,570.427,0.0
56770.0,STARLINK-6342,PAYLOAD,2024-01-16 20:14:42,14.98331463,0.000265,69.9997,178.3161,277.2163,82.8695,4.802e-06,-3.6e-07,0.0,0 STARLINK-6342,1 56770U 23078D   24016.84354988 -.00000036  00000-0  48020-5 0  9996,2 56770  69.9997 178.3161 0002650 277.2163  82.8695 14.98331463 34922,6950.188,96.107,573.895,570.212,0.0
56770.0,STARLINK-6342,PAYLOAD,2024-01-17 12:16:03,14.98327832,0.000269,69.9997,176.6327,274.5373,85.5479,-2.6471e-05,-4.09e-06,0.0,0 STARLINK-6342,1 56770U 23078D   24017.51115346 -.00000409  00000-0 -26471-4 0  9994,2 56770  69.9997 176.6327 0002690 274.5373  85.5479 14.98327832 35289,6950.2,96.107,573.934,570.195,0.0
56770.0,STARLINK-6342,PAYLOAD,2024-01-17 13:52:11,14.98327305,0.0002693,69.9997,176.4644,273.993,86.0921,-3.1634e-05,-4.7e-06,0.0,0 STARLINK-6342,1 56770U 23078D   24017.57791408 -.00000470  00000-0 -31634-4 0  9994,2 56770  69.9997 176.4644 0002693 273.9930  86.0921 14.98327305 35030,6950.201,96.107,573.938,570.195,0.0
56770.0,STARLINK-6342,PAYLOAD,2024-01-17 20:16:44,14.98326287,0.0002731,69.9999,175.7914,275.4294,84.6554,-4.1595e-05,-5.89e-06,0.0,0 STARLINK-6342,1 56770U 23078D   24017.84495561 -.00000589  00000-0 -41595-4 0  9993,2 56770  69.9999 175.7914 0002731 275.4294  84.6554 14.98326287 35075,6950.204,96.107,573.967,570.171,0.0
